0 BREEZE-M DEB
1 38614U 08011BM  13278.16778442  .00000026  00000-0  00000+0 0  1902
2 38614 048.9854 215.5976 6284700 222.0924 336.6767 03.02872649 25607
0 BREEZE-M DEB
1 38614U 08011BM  13279.15213753  .00000031  00000-0  00000+0 0  1918
2 38614 048.9831 215.2829 6285007 222.3649 330.0347 03.02869881 25633
0 BREEZE-M DEB
1 38614U 08011BM  13289.35904920 -.00000018  00000-0  00000+0 0  1921
2 38614 048.9620 212.0247 6285223 225.1656 299.2140 03.02836237 25947
0 BREEZE-M DEB
1 38614U 08011BM  13290.35377611 -.00000018  00000-0  00000+0 0  1935
2 38614 048.9617 211.7020 6286965 225.4713 303.7192 03.02832543 25976
